[{"OBJECT_NAME":"LEMUR-2-KARENDARRELL","OBJECT_ID":"2025-135BU","EPOCH":"2026-03-09T21:08:31.963200","MEAN_MOTION":14.98475386,"ECCENTRICITY":0.00078103,"INCLINATION":97.7605,"RA_OF_ASC_NODE":185.4061,"ARG_OF_PERICENTER":183.1489,"MEAN_ANOMALY":176.9686,"EPHEMERIS_TYPE":0,"CLASSIFICATION_TYPE":"U","NORAD_CAT_ID":64841,"ELEMENT_SET_NO":999,"REV_AT_EPOCH":3913,"BSTAR":0.00091115502,"MEAN_MOTION_DOT":0.00010849,"MEAN_MOTION_DDOT":0},{"OBJECT_NAME":"STARLINK-36035","OBJECT_ID":"2025-298H","EPOCH":"2026-03-09T22:04:54.591456","MEAN_MOTION":14.99141738,"ECCENTRICITY":0.0002157,"INCLINATION":70.0024,"RA_OF_ASC_NODE":13.8096,"ARG_OF_PERICENTER":277.7374,"MEAN_ANOMALY":82.3541,"EPHEMERIS_TYPE":0,"CLASSIFICATION_TYPE":"U","NORAD_CAT_ID":67082,"ELEMENT_SET_NO":999,"REV_AT_EPOCH":1325,"BSTAR":0.00054139033,"MEAN_MOTION_DOT":6.509e-5,"MEAN_MOTION_DDOT":0}]
